{
  "type": "FeatureCollection",
  "features": [
    {
      "type": "Feature",
      "properties": {
        "norad_id": 63632,
        "name": "SHENZHOU-20 (SZ-20)",
        "group": "stations",
        "lat": -28.611949627337484,
        "lon": 18.027589414333853,
        "alt_km": 387.6578952953014,
        "timestamp": "2025-12-06T05:40:08.031052+00:00",
        "meta_object_name": "SHENZHOU-20 (SZ-20)",
        "meta_object_id": "2025-082A",
        "meta_epoch": "2025-12-05T06:48:03.993120",
        "meta_mean_motion": 15.5871605,
        "meta_eccentricity": 0.00098342,
        "meta_inclination": 41.4682,
        "meta_ra_of_asc_node": 61.9587,
        "meta_arg_of_pericenter": 333.0075,
        "meta_mean_anomaly": 27.0251,
        "meta_ephemeris_type": 0,
        "meta_classification_type": "U",
        "meta_norad_cat_id": 63632,
        "meta_element_set_no": 999,
        "meta_rev_at_epoch": 25530,
        "meta_bstar": 0.00043162186,
        "meta_mean_motion_dot": 0.00034071,
        "meta_mean_motion_ddot": 0,
        "tle_line1": "1 63632U 25082A   25339.28337955  .00034071  00000+0  43162-3 0  9994",
        "tle_line2": "2 63632  41.4682  61.9587 0009834 333.0075  27.0251 15.58716050255308"
      },
      "geometry": {
        "type": "Point",
        "coordinates": [
          18.027589414333853,
          -28.611949627337484
        ]
      }
    },
    {
      "type": "Feature",
      "properties": {
        "norad_id": 64751,
        "name": "PROGRESS-MS 31",
        "group": "stations",
        "lat": 51.568866307823505,
        "lon": -98.42540020609954,
        "alt_km": 412.7847668309996,
        "timestamp": "2025-12-06T05:40:08.031063+00:00",
        "meta_object_name": "PROGRESS-MS 31",
        "meta_object_id": "2025-146A",
        "meta_epoch": "2025-12-05T06:04:12.236160",
        "meta_mean_motion": 15.49328184,
        "meta_eccentricity": 0.00035858,
        "meta_inclination": 51.6297,
        "meta_ra_of_asc_node": 179.5463,
        "meta_arg_of_pericenter": 206.2517,
        "meta_mean_anomaly": 153.8291,
        "meta_ephemeris_type": 0,
        "meta_classification_type": "U",
        "meta_norad_cat_id": 64751,
        "meta_element_set_no": 999,
        "meta_rev_at_epoch": 675,
        "meta_bstar": 0.0002719745,
        "meta_mean_motion_dot": 0.00014736,
        "meta_mean_motion_ddot": 0,
        "tle_line1": "1 64751U 25146A   25339.25291940  .00014736  00000+0  27197-3 0  9994",
        "tle_line2": "2 64751  51.6297 179.5463 0003585 206.2517 153.8291 15.49328184  6756"
      },
      "geometry": {
        "type": "Point",
        "coordinates": [
          -98.42540020609954,
          51.568866307823505
        ]
      }
    },
    {
      "type": "Feature",
      "properties": {
        "norad_id": 64786,
        "name": "TIANZHOU-9",
        "group": "stations",
        "lat": -28.611948915910947,
        "lon": 18.027590742070892,
        "alt_km": 387.6578951778356,
        "timestamp": "2025-12-06T05:40:08.031073+00:00",
        "meta_object_name": "TIANZHOU-9",
        "meta_object_id": "2025-149A",
        "meta_epoch": "2025-12-05T06:48:03.993120",
        "meta_mean_motion": 15.5871605,
        "meta_eccentricity": 0.00098342,
        "meta_inclination": 41.4682,
        "meta_ra_of_asc_node": 61.9587,
        "meta_arg_of_pericenter": 333.0075,
        "meta_mean_anomaly": 27.0251,
        "meta_ephemeris_type": 0,
        "meta_classification_type": "U",
        "meta_norad_cat_id": 64786,
        "meta_element_set_no": 999,
        "meta_rev_at_epoch": 25530,
        "meta_bstar": 0.00043162186,
        "meta_mean_motion_dot": 0.00034071,
        "meta_mean_motion_ddot": 0,
        "tle_line1": "1 64786U 25149A   25339.28337955  .00034071  00000+0  43162-3 0  9999",
        "tle_line2": "2 64786  41.4682  61.9587 0009834 333.0075  27.0251 15.58716050255309"
      },
      "geometry": {
        "type": "Point",
        "coordinates": [
          18.027590742070892,
          -28.611948915910947
        ]
      }
    },
    {
      "type": "Feature",
      "properties": {
        "norad_id": 65077,
        "name": "CREW DRAGON 11",
        "group": "stations",
        "lat": 51.56886636268709,
        "lon": -98.4253981280506,
        "alt_km": 412.7847667769156,
        "timestamp": "2025-12-06T05:40:08.031083+00:00",
        "meta_object_name": "CREW DRAGON 11",
        "meta_object_id": "2025-166A",
        "meta_epoch": "2025-12-05T06:04:12.236160",
        "meta_mean_motion": 15.49328184,
        "meta_eccentricity": 0.00035858,
        "meta_inclination": 51.6297,
        "meta_ra_of_asc_node": 179.5463,
        "meta_arg_of_pericenter": 206.2517,
        "meta_mean_anomaly": 153.8291,
        "meta_ephemeris_type": 0,
        "meta_classification_type": "U",
        "meta_norad_cat_id": 65077,
        "meta_element_set_no": 999,
        "meta_rev_at_epoch": 214,
        "meta_bstar": 0.0002719745,
        "meta_mean_motion_dot": 0.00014736,
        "meta_mean_motion_ddot": 0,
        "tle_line1": "1 65077U 25166A   25339.25291940  .00014736  00000+0  27197-3 0  9998",
        "tle_line2": "2 65077  51.6297 179.5463 0003585 206.2517 153.8291 15.49328184  2147"
      },
      "geometry": {
        "type": "Point",
        "coordinates": [
          -98.4253981280506,
          51.56886636268709
        ]
      }
    },
    {
      "type": "Feature",
      "properties": {
        "norad_id": 65304,
        "name": "DRAGON CRS-33",
        "group": "stations",
        "lat": 51.56886639011893,
        "lon": -98.42539708902416,
        "alt_km": 412.7847667498763,
        "timestamp": "2025-12-06T05:40:08.031093+00:00",
        "meta_object_name": "DRAGON CRS-33",
        "meta_object_id": "2025-186A",
        "meta_epoch": "2025-12-05T06:04:12.236160",
        "meta_mean_motion": 15.49328184,
        "meta_eccentricity": 0.00035858,
        "meta_inclination": 51.6297,
        "meta_ra_of_asc_node": 179.5463,
        "meta_arg_of_pericenter": 206.2517,
        "meta_mean_anomaly": 153.8291,
        "meta_ephemeris_type": 0,
        "meta_classification_type": "U",
        "meta_norad_cat_id": 65304,
        "meta_element_set_no": 999,
        "meta_rev_at_epoch": 11,
        "meta_bstar": 0.0002719745,
        "meta_mean_motion_dot": 0.00014736,
        "meta_mean_motion_ddot": 0,
        "tle_line1": "1 65304U 25186A   25339.25291940  .00014736  00000+0  27197-3 0  9993",
        "tle_line2": "2 65304  51.6297 179.5463 0003585 206.2517 153.8291 15.49328184   115"
      },
      "geometry": {
        "type": "Point",
        "coordinates": [
          -98.42539708902416,
          51.56886639011893
        ]
      }
    },
    {
      "type": "Feature",
      "properties": {
        "norad_id": 65586,
        "name": "PROGRESS-MS 32",
        "group": "stations",
        "lat": 51.568866417550694,
        "lon": -98.42539605000036,
        "alt_km": 412.7847667228334,
        "timestamp": "2025-12-06T05:40:08.031103+00:00",
        "meta_object_name": "PROGRESS-MS 32",
        "meta_object_id": "2025-204A",
        "meta_epoch": "2025-12-05T06:04:12.236160",
        "meta_mean_motion": 15.49328184,
        "meta_eccentricity": 0.00035858,
        "meta_inclination": 51.6297,
        "meta_ra_of_asc_node": 179.5463,
        "meta_arg_of_pericenter": 206.2517,
        "meta_mean_anomaly": 153.8291,
        "meta_ephemeris_type": 0,
        "meta_classification_type": "U",
        "meta_norad_cat_id": 65586,
        "meta_element_set_no": 999,
        "meta_rev_at_epoch": 27,
        "meta_bstar": 0.0002719745,
        "meta_mean_motion_dot": 0.00014736,
        "meta_mean_motion_ddot": 0,
        "tle_line1": "1 65586U 25204A   25339.25291940  .00014736  00000+0  27197-3 0  9996",
        "tle_line2": "2 65586  51.6297 179.5463 0003585 206.2517 153.8291 15.49328184   274"
      },
      "geometry": {
        "type": "Point",
        "coordinates": [
          -98.42539605000036,
          51.568866417550694
        ]
      }
    },
    {
      "type": "Feature",
      "properties": {
        "norad_id": 65616,
        "name": "CYGNUS NG-23",
        "group": "stations",
        "lat": 51.56886644772563,
        "lon": -98.42539490707306,
        "alt_km": 412.78476669308657,
        "timestamp": "2025-12-06T05:40:08.031114+00:00",
        "meta_object_name": "CYGNUS NG-23",
        "meta_object_id": "2025-208A",
        "meta_epoch": "2025-12-05T06:04:12.236160",
        "meta_mean_motion": 15.49328184,
        "meta_eccentricity": 0.00035858,
        "meta_inclination": 51.6297,
        "meta_ra_of_asc_node": 179.5463,
        "meta_arg_of_pericenter": 206.2517,
        "meta_mean_anomaly": 153.8291,
        "meta_ephemeris_type": 0,
        "meta_classification_type": "U",
        "meta_norad_cat_id": 65616,
        "meta_element_set_no": 999,
        "meta_rev_at_epoch": 22,
        "meta_bstar": 0.0002719745,
        "meta_mean_motion_dot": 0.00014736,
        "meta_mean_motion_ddot": 0,
        "tle_line1": "1 65616U 25208A   25339.25291940  .00014736  00000+0  27197-3 0  9994",
        "tle_line2": "2 65616  51.6297 179.5463 0003585 206.2517 153.8291 15.49328184   223"
      },
      "geometry": {
        "type": "Point",
        "coordinates": [
          -98.42539490707306,
          51.56886644772563
        ]
      }
    }
  ]
}